[{"OBJECT_NAME":"STARLINK-30368","OBJECT_ID":"2023-131W","EPOCH":"2026-03-09T22:00:01.999584","MEAN_MOTION":15.10444621,"ECCENTRICITY":9.044e-5,"INCLINATION":43.0006,"RA_OF_ASC_NODE":170.4263,"ARG_OF_PERICENTER":221.0122,"MEAN_ANOMALY":347.301,"EPHEMERIS_TYPE":0,"CLASSIFICATION_TYPE":"U","NORAD_CAT_ID":57752,"ELEMENT_SET_NO":999,"REV_AT_EPOCH":578,"BSTAR":0.092788954,"MEAN_MOTION_DOT":0.01700378,"MEAN_MOTION_DDOT":0},{"OBJECT_NAME":"TRANSPORTER-15 OBJECT DM","OBJECT_ID":"2025-276DM","EPOCH":"2026-03-09T22:43:55.888032","MEAN_MOTION":15.19567791,"ECCENTRICITY":0.00018743,"INCLINATION":97.4286,"RA_OF_ASC_NODE":144.3741,"ARG_OF_PERICENTER":156.2959,"MEAN_ANOMALY":203.8363,"EPHEMERIS_TYPE":0,"CLASSIFICATION_TYPE":"U","NORAD_CAT_ID":66773,"ELEMENT_SET_NO":999,"REV_AT_EPOCH":1536,"BSTAR":0.00033320961,"MEAN_MOTION_DOT":7.022e-5,"MEAN_MOTION_DDOT":0}]
